{"type": "FeatureCollection", "features": [{"type": "Feature", "properties": {"DAUID": "48112696", "mode": "car", "penalty_score": 1.0, "speed_factor": 1.0}, "geometry": {"type": "LineString", "coordinates": [[-113.66244816666672, 53.43120550000001], [-113.4938, 53.5445]]}}, {"type": "Feature", "properties": {"DAUID": "48112696", "mode": "transit", "penalty_score": 1.0, "speed_factor": 0.4}, "geometry": {"type": "LineString", "coordinates": [[-113.66412107274402, 53.43369575807028], [-113.4954729060773, 53.54699025807027]]}}, {"type": "Feature", "properties": {"DAUID": "48112072", "mode": "car", "penalty_score": 0.9477930955168501, "speed_factor": 1.0}, "geometry": {"type": "LineString", "coordinates": [[-113.33035882352942, 53.45485000000001], [-113.4938, 53.5445]]}}, {"type": "Feature", "properties": {"DAUID": "48112072", "mode": "transit", "penalty_score": 0.9477930955168501, "speed_factor": 0.4129348295215587}, "geometry": {"type": "LineString", "coordinates": [[-113.33180158077874, 53.45221970505086], [-113.49524275724931, 53.54186970505085]]}}, {"type": "Feature", "properties": {"DAUID": "48111987", "mode": "car", "penalty_score": 0.9442594859592234, "speed_factor": 1.0}, "geometry": {"type": "LineString", "coordinates": [[-113.49807818181816, 53.67110636363636], [-113.4938, 53.5445]]}}, {"type": "Feature", "properties": {"DAUID": "48111987", "mode": "transit", "penalty_score": 0.9442594859592234, "speed_factor": 0.41384061310319326}, "geometry": {"type": "LineString", "coordinates": [[-113.49507989312126, 53.67120767942982], [-113.49080171130309, 53.54460131579346]]}}, {"type": "Feature", "properties": {"DAUID": "48111986", "mode": "car", "penalty_score": 0.9348080235054762, "speed_factor": 1.0}, "geometry": {"type": "LineString", "coordinates": [[-113.498345, 53.67023124999999], [-113.4938, 53.5445]]}}, {"type": "Feature", "properties": {"DAUID": "48111986", "mode": "transit", "penalty_score": 0.9348080235054762, "speed_factor": 0.41628298639862144}, "geometry": {"type": "LineString", "coordinates": [[-113.4953469581556, 53.670339624808825], [-113.49080195815559, 53.54460837480883]]}}, {"type": "Feature", "properties": {"DAUID": "48111981", "mode": "car", "penalty_score": 0.793836948041437, "speed_factor": 1.0}, "geometry": {"type": "LineString", "coordinates": [[-113.73831714285714, 53.48804392857143], [-113.4938, 53.5445]]}}, {"type": "Feature", "properties": {"DAUID": "48111981", "mode": "transit", "penalty_score": 0.793836948041437, "speed_factor": 0.4564635513072022}, "geometry": {"type": "LineString", "coordinates": [[-113.73899205096315, 53.490967026080654], [-113.494474908106, 53.547423097509224]]}}, {"type": "Feature", "properties": {"DAUID": "48111988", "mode": "car", "penalty_score": 0.7554270492945729, "speed_factor": 1.0}, "geometry": {"type": "LineString", "coordinates": [[-113.49579857142858, 53.69242285714286], [-113.4938, 53.5445]]}}, {"type": "Feature", "properties": {"DAUID": "48111988", "mode": "transit", "penalty_score": 0.7554270492945729, "speed_factor": 0.4687923581857929}, "geometry": {"type": "LineString", "coordinates": [[-113.49279884520786, 53.69246338615395], [-113.49080027377927, 53.544540529011094]]}}, {"type": "Feature", "properties": {"DAUID": "48112073", "mode": "car", "penalty_score": 0.7521376303038249, "speed_factor": 1.0}, "geometry": {"type": "LineString", "coordinates": [[-113.30327730769233, 53.476713461538466], [-113.4938, 53.5445]]}}, {"type": "Feature", "properties": {"DAUID": "48112073", "mode": "transit", "penalty_score": 0.7521376303038249, "speed_factor": 0.4698792272409731}, "geometry": {"type": "LineString", "coordinates": [[-113.30428293113216, 53.47388702889337], [-113.49480562343983, 53.541673567354906]]}}, {"type": "Feature", "properties": {"DAUID": "48111813", "mode": "car", "penalty_score": 0.7448850315344169, "speed_factor": 1.0}, "geometry": {"type": "LineString", "coordinates": [[-113.72874153846153, 53.43815615384616], [-113.4938, 53.5445]]}}, {"type": "Feature", "properties": {"DAUID": "48111813", "mode": "transit", "penalty_score": 0.7448850315344169, "speed_factor": 0.4722934820710309}, "geometry": {"type": "LineString", "coordinates": [[-113.72997862887281, 53.44088921208087], [-113.49503709041127, 53.54723305823471]]}}, {"type": "Feature", "properties": {"DAUID": "48112568", "mode": "car", "penalty_score": 0.7362756471201335, "speed_factor": 1.0}, "geometry": {"type": "LineString", "coordinates": [[-113.37118812500002, 53.440755625], [-113.4938, 53.5445]]}}, {"type": "Feature", "properties": {"DAUID": "48112568", "mode": "transit", "penalty_score": 0.7362756471201335, "speed_factor": 0.4751917880837241}, "geometry": {"type": "LineString", "coordinates": [[-113.3731259067187, 53.43846542806289], [-113.49573778171867, 53.54220980306289]]}}, {"type": "Feature", "properties": {"DAUID": "48111886", "mode": "car", "penalty_score": 0.7229798514173938, "speed_factor": 1.0}, "geometry": {"type": "LineString", "coordinates": [[-113.75693156862745, 53.58875549019608], [-113.4938, 53.5445]]}}, {"type": "Feature", "properties": {"DAUID": "48111886", "mode": "transit", "penalty_score": 0.7229798514173938, "speed_factor": 0.47973830610234336}, "geometry": {"type": "LineString", "coordinates": [[-113.7564339939592, 53.59171393902097], [-113.49330242533175, 53.54745844882489]]}}, {"type": "Feature", "properties": {"DAUID": "48112176", "mode": "car", "penalty_score": 0.6764061937352065, "speed_factor": 1.0}, "geometry": {"type": "LineString", "coordinates": [[-113.34505396825395, 53.55035682539683], [-113.4938, 53.5445]]}}, {"type": "Feature", "properties": {"DAUID": "48112176", "mode": "transit", "penalty_score": 0.6764061937352065, "speed_factor": 0.49637416280393554}, "geometry": {"type": "LineString", "coordinates": [[-113.34493593571567, 53.54735914824278], [-113.49368196746171, 53.54150232284595]]}}, {"type": "Feature", "properties": {"DAUID": "48111653", "mode": "car", "penalty_score": 0.6431366655629648, "speed_factor": 1.0}, "geometry": {"type": "LineString", "coordinates": [[-113.25672571428572, 53.49126428571429], [-113.4938, 53.5445]]}}, {"type": "Feature", "properties": {"DAUID": "48111653", "mode": "transit", "penalty_score": 0.6431366655629648, "speed_factor": 0.5089822649418855}, "geometry": {"type": "LineString", "coordinates": [[-113.25738300511387, 53.488337176429134], [-113.49445729082814, 53.541572890714846]]}}, {"type": "Feature", "properties": {"DAUID": "48111985", "mode": "car", "penalty_score": 0.6426048292928711, "speed_factor": 1.0}, "geometry": {"type": "LineString", "coordinates": [[-113.53916179487179, 53.6822753846154], [-113.4938, 53.5445]]}}, {"type": "Feature", "properties": {"DAUID": "48111985", "mode": "transit", "penalty_score": 0.6426048292928711, "speed_factor": 0.5091890174986821}, "geometry": {"type": "LineString", "coordinates": [[-113.536312268969, 53.68321357549649], [-113.4909504740972, 53.545438190881086]]}}, {"type": "Feature", "properties": {"DAUID": "48111982", "mode": "car", "penalty_score": 0.6200167170316929, "speed_factor": 1.0}, "geometry": {"type": "LineString", "coordinates": [[-113.73525523809522, 53.49520142857144], [-113.4938, 53.5445]]}}, {"type": "Feature", "properties": {"DAUID": "48111982", "mode": "transit", "penalty_score": 0.6200167170316929, "speed_factor": 0.5181279832420336}, "geometry": {"type": "LineString", "coordinates": [[-113.73585537514704, 53.49814078828387], [-113.49440013705181, 53.54743935971243]]}}, {"type": "Feature", "properties": {"DAUID": "48111951", "mode": "car", "penalty_score": 0.60933981847272, "speed_factor": 1.0}, "geometry": {"type": "LineString", "coordinates": [[-113.58058157894737, 53.63160473684211], [-113.4938, 53.5445]]}}, {"type": "Feature", "properties": {"DAUID": "48111951", "mode": "transit", "penalty_score": 0.60933981847272, "speed_factor": 0.5224633843407482}, "geometry": {"type": "LineString", "coordinates": [[-113.57845631991991, 53.63372211117514], [-113.49167474097253, 53.54661737433303]]}}]}