{"type": "FeatureCollection", "features": [{"type": "Feature", "geometry": {"type": "MultiPolygon", "coordinates": [[[[-113.51648, 53.48834], [-113.51092, 53.48834], [-113.51089, 53.48496], [-113.51118, 53.48485], [-113.5112, 53.48312], [-113.50774, 53.48258], [-113.50801, 53.48196], [-113.5161, 53.48285], [-113.52091, 53.48316], [-113.536, 53.48318], [-113.53642, 53.48382], [-113.5357, 53.48381], [-113.5357, 53.48572], [-113.52883, 53.4857], [-113.5287, 53.48386], [-113.5245, 53.48384], [-113.52337, 53.48435], [-113.52431, 53.48503], [-113.52274, 53.48582], [-113.52273, 53.48831], [-113.51648, 53.48834]]], [[[-113.52512, 53.5083], [-113.52571, 53.50775], [-113.5312, 53.50713], [-113.53125, 53.5092], [-113.53389, 53.50862], [-113.53502, 53.50939], [-113.53523, 53.51035], [-113.53835, 53.51034], [-113.53838, 53.51069], [-113.5372, 53.5123], [-113.53715193393344, 53.51229951366543], [-113.53855, 53.51268], [-113.53727, 53.51476], [-113.53684, 53.5177], [-113.53649, 53.51829], [-113.53442, 53.51794], [-113.53288683429764, 53.51773027450298], [-113.53244, 53.5187], [-113.53249, 53.52295], [-113.52921511520755, 53.52294437788019], [-113.53066, 53.52295], [-113.54059, 53.52302], [-113.54112, 53.52479], [-113.54104, 53.52544], [-113.53923, 53.52706], [-113.5387, 53.52783], [-113.53722, 53.52856], [-113.53644, 53.53029], [-113.53457, 53.53128], [-113.5307, 53.53084], [-113.52411, 53.52955], [-113.52081, 53.52833], [-113.51805, 53.52671], [-113.51508, 53.5258], [-113.515, 53.5248], [-113.5133, 53.5248], [-113.51259660731515, 53.52391600649066], [-113.51175, 53.52393], [-113.50632, 53.52338], [-113.50631, 53.52194], [-113.51197, 53.52196], [-113.51207, 53.51816], [-113.51203, 53.51426], [-113.51206, 53.51133], [-113.51203, 53.50659], [-113.512, 53.50202], [-113.51657, 53.50198], [-113.51659, 53.50658], [-113.51658597878037, 53.508490079324524], [-113.52311, 53.50851], [-113.52451, 53.50821], [-113.52549424555897, 53.50960362203041], [-113.52512, 53.5083]], [[-113.52085, 53.52196], [-113.5178, 53.52195], [-113.51499, 53.52194], [-113.51197, 53.52196], [-113.52085, 53.52196]], [[-113.51784, 53.51505], [-113.51662, 53.51484], [-113.51203, 53.51426], [-113.51784, 53.51505]], [[-113.51662, 53.51227], [-113.51658293680298, 53.509935018587434], [-113.51658, 53.51133], [-113.51662, 53.51227]], [[-113.52585915760869, 53.51697633152174], [-113.52619459169257, 53.516814826222095], [-113.52594, 53.51678], [-113.52585915760869, 53.51697633152174]], [[-113.52554, 53.51713], [-113.52559876470589, 53.517101705882354], [-113.52550769357497, 53.51709342668863], [-113.52554, 53.51713]], [[-113.52501, 53.51653], [-113.52524586387435, 53.51679701570681], [-113.52524007518797, 53.51641496240602], [-113.52501, 53.51653]], [[-113.52301, 53.51592], [-113.52531, 53.5163], [-113.52075, 53.51554], [-113.52301, 53.51592]], [[-113.52565269365785, 53.51015554957481], [-113.52570950364964, 53.51170204379586], [-113.52572, 53.51039], [-113.52565269365785, 53.51015554957481]], [[-113.53127, 53.51224], [-113.53123, 53.51036], [-113.53128, 53.51285], [-113.53127, 53.51224]], [[-113.52569, 53.51414], [-113.52569346604216, 53.513706744730754], [-113.52563348237318, 53.51608209802236], [-113.52572, 53.51601], [-113.52569, 53.51414]], [[-113.53228468312209, 53.51523153435624], [-113.53202, 53.51353], [-113.53205, 53.51415], [-113.53206, 53.51499], [-113.53228468312209, 53.51523153435624]], [[-113.53246, 53.51542], [-113.53506, 53.51581], [-113.53239100120628, 53.51534582629674], [-113.53246, 53.51542]], [[-113.52077, 53.51912], [-113.52083, 53.521], [-113.52077, 53.51816], [-113.52077, 53.51912]]], [[[-113.53828, 53.54007], [-113.54079, 53.54082], [-113.54124, 53.54139], [-113.5412, 53.54192], [-113.54031, 53.54304], [-113.54077, 53.54425], [-113.54215, 53.54487], [-113.54301, 53.54589], [-113.54431, 53.54634], [-113.54579, 53.54788], [-113.54856, 53.54949], [-113.54978, 53.55105], [-113.5506, 53.55286], [-113.55075, 53.55548], [-113.54617, 53.55548], [-113.54617, 53.55731], [-113.5445, 53.5573], [-113.5445, 53.55103774941995], [-113.54449997327808, 53.55103774935795], [-113.54449, 53.55393], [-113.53941, 53.55397], [-113.53941, 53.55573], [-113.53764, 53.55573], [-113.53763, 53.55889], [-113.5341, 53.55893], [-113.53091, 53.55894], [-113.52312, 53.55892], [-113.52126, 53.55892], [-113.52133, 53.56082], [-113.52354, 53.56087], [-113.52355, 53.56329], [-113.52139, 53.56329], [-113.52068, 53.56294], [-113.51806, 53.56407], [-113.51774, 53.5647], [-113.51750000878735, 53.5647], [-113.53092, 53.57035], [-113.52974, 53.57067], [-113.52795, 53.57007], [-113.52373, 53.57174], [-113.51822, 53.57038], [-113.50291, 53.57036], [-113.49920007810897, 53.5703773360836], [-113.49920338910214, 53.57195999081544], [-113.50289, 53.57195], [-113.50288, 53.5783], [-113.49920263888889, 53.5783], [-113.4992, 53.57944], [-113.49224, 53.57942], [-113.48577, 53.57985], [-113.4857651401623, 53.57828999209783], [-113.47962, 53.57828], [-113.47617, 53.57827], [-113.47617, 53.57983], [-113.47262, 53.57983], [-113.46732, 53.57982], [-113.4618, 53.57983], [-113.45688, 53.57983], [-113.45693, 53.57866], [-113.45582, 53.57928], [-113.45457, 53.57927], [-113.453, 53.58065], [-113.45106, 53.57931], [-113.449, 53.57848], [-113.45278, 53.57579], [-113.45893, 53.57041], [-113.45298, 53.57561], [-113.45265, 53.57377], [-113.44609, 53.57356], [-113.44606010528233, 53.57041108973788], [-113.44606, 53.57041108935128], [-113.44606, 53.57195], [-113.44302, 53.57195], [-113.44301, 53.57355], [-113.4383, 53.57354], [-113.43833, 53.57193], [-113.4368, 53.57193], [-113.4352, 53.57171], [-113.4329, 53.57192], [-113.43225, 53.57239], [-113.43066, 53.57236], [-113.43067, 53.57191], [-113.4276, 53.57191], [-113.4276, 53.57353], [-113.42608, 53.57353], [-113.42607, 53.57507], [-113.4215, 53.57509], [-113.4215, 53.57352346236559], [-113.41837, 53.57351], [-113.41839, 53.57039], [-113.42457, 53.57037], [-113.4276, 53.57037], [-113.4368, 53.57039], [-113.44149052287581, 53.57039506535948], [-113.4399, 53.57039], [-113.43067, 53.57037], [-113.42302, 53.57036], [-113.42303, 53.56725], [-113.42789, 53.56722], [-113.43047, 53.56662], [-113.43637, 53.5652], [-113.44069, 53.56416], [-113.45545, 53.56122], [-113.46728, 53.561194954128446], [-113.46728, 53.55946], [-113.46729, 53.55808], [-113.46732, 53.55524], [-113.46679, 53.55446], [-113.46561, 53.55402], [-113.46562832038836, 53.55400908859223], [-113.46202, 53.55497], [-113.45761, 53.55466], [-113.44908, 53.55341], [-113.44697, 53.55334], [-113.43921, 53.5547], [-113.43514, 53.55611], [-113.43485, 53.55575], [-113.43678, 53.55195], [-113.43601, 53.54937], [-113.43836120873844, 53.549366456354576], [-113.43943, 53.54818], [-113.44215, 53.54636], [-113.44301, 53.54545], [-113.44331, 53.5445], [-113.44331, 53.54121], [-113.4493, 53.54122], [-113.4556, 53.54122], [-113.45559002441341, 53.546337475923494], [-113.45716, 53.54634], [-113.45713, 53.54935], [-113.45948, 53.55007], [-113.466, 53.54901], [-113.46368, 53.54709], [-113.46179, 53.54501], [-113.46099, 53.54328], [-113.46142267581956, 53.541276522835524], [-113.46141, 53.54129], [-113.45895, 53.54123], [-113.46301, 53.53894], [-113.46511, 53.53851], [-113.46672, 53.53845], [-113.46696, 53.53825], [-113.46138, 53.53833], [-113.4567, 53.53785], [-113.45685, 53.53755], [-113.45609, 53.53686], [-113.45665, 53.53739], [-113.44928, 53.53753], [-113.44287, 53.53759], [-113.44292, 53.53399], [-113.44289, 53.5305], [-113.44282, 53.52528], [-113.43987, 53.52528], [-113.43985, 53.52117], [-113.4368, 53.52117], [-113.43678, 53.51904], [-113.43679, 53.51805], [-113.43618, 53.51803], [-113.43681, 53.51688], [-113.43682, 53.51611], [-113.44281, 53.5161], [-113.44905002649186, 53.51609492680773], [-113.44907, 53.51227], [-113.45208, 53.51228], [-113.46133, 53.51229], [-113.46133998245625, 53.51513500002895], [-113.46437, 53.51513], [-113.46439, 53.51803], [-113.47015, 53.51803], [-113.47445, 53.51812], [-113.47495, 53.51534], [-113.47463, 53.51481], [-113.47221, 53.51286], [-113.46971, 53.51253], [-113.46962, 53.51224], [-113.47672, 53.51228], [-113.47669, 53.51325], [-113.47977, 53.51326], [-113.47971074888828, 53.51803958967901], [-113.4797110842687, 53.51803959074371], [-113.47978, 53.5142], [-113.47977, 53.51228], [-113.48605, 53.51231], [-113.48607994879978, 53.50854643416096], [-113.48285, 53.50854], [-113.48284, 53.50569], [-113.47644, 53.5057], [-113.47645, 53.5029], [-113.48613, 53.50288], [-113.48612, 53.49994], [-113.49143, 53.49994], [-113.49289, 53.50856], [-113.49442, 53.51813], [-113.50349, 53.5181], [-113.50349, 53.51615], [-113.51204, 53.51616], [-113.51207, 53.51816], [-113.51195, 53.51909], [-113.51196, 53.52005], [-113.51197, 53.52196], [-113.50937, 53.52193], [-113.50933, 53.52099], [-113.50347, 53.52098], [-113.50506, 53.52099], [-113.50504, 53.52265], [-113.50472, 53.5232], [-113.50347, 53.52314], [-113.50347, 53.52256], [-113.50045014085164, 53.522550000466396], [-113.50046, 53.52325], [-113.49552, 53.52379], [-113.49316667954164, 53.524370043774944], [-113.49454, 53.52451], [-113.49518, 53.52543], [-113.48994, 53.52837], [-113.48904, 53.52912], [-113.48989, 53.52842], [-113.49363, 53.5264], [-113.49604, 53.52605], [-113.49807, 53.52629], [-113.50376, 53.52833], [-113.50867, 53.52941], [-113.51136, 53.52969], [-113.5216, 53.5303], [-113.52434, 53.53059], [-113.53138, 53.53239], [-113.5387, 53.53544], [-113.53962, 53.5359], [-113.53745, 53.53855], [-113.53748, 53.53945], [-113.53828, 53.54007]], [[-113.51577, 53.55893], [-113.51348668508173, 53.55894237569061], [-113.52126, 53.55892], [-113.51577, 53.55893]], [[-113.51576, 53.55301], [-113.51575, 53.55459], [-113.51577, 53.55893], [-113.51576, 53.55301]], [[-113.51761, 53.55301], [-113.52126, 53.553], [-113.51576, 53.55301], [-113.51761, 53.55301]], [[-113.52126, 53.55459], [-113.52129, 53.55144], [-113.52126, 53.553], [-113.52126, 53.55459]], [[-113.51581, 53.55145], [-113.5158, 53.54983], [-113.51576, 53.55301], [-113.51581, 53.55145]], [[-113.51948, 53.54981], [-113.52155864454708, 53.549844301065136], [-113.5213, 53.54979], [-113.51394, 53.54983], [-113.5158, 53.54983], [-113.51948, 53.54981]], [[-113.49223, 53.57513], [-113.49198, 53.57035], [-113.49223, 53.5753], [-113.49224, 53.57942], [-113.49223, 53.57513]], [[-113.49217779905901, 53.57035109583966], [-113.49194356797726, 53.56992262434865], [-113.49198, 53.57035], [-113.49217779905901, 53.57035109583966]], [[-113.47961, 53.5748], [-113.47971, 53.57039], [-113.4796, 53.57512], [-113.47962, 53.57828], [-113.47961, 53.5748]], [[-113.47969, 53.56734], [-113.47963, 53.56275], [-113.47966, 53.56581], [-113.47971, 53.57039], [-113.47969, 53.56734]], [[-113.47671, 53.57038], [-113.47618, 53.57038], [-113.47971, 53.57039], [-113.47671, 53.57038]], [[-113.4632962377044, 53.56667026439447], [-113.46325, 53.56669], [-113.45893, 53.57041], [-113.4632962377044, 53.56667026439447]], [[-113.46904, 53.55964], [-113.46961184682502, 53.559564411051866], [-113.46728, 53.55946], [-113.46904, 53.55964]], [[-113.45600850600236, 53.535266339601684], [-113.45594, 53.53537], [-113.45609, 53.53686], [-113.45600850600236, 53.535266339601684]], [[-113.52124, 53.5326], [-113.52135, 53.53735], [-113.5214, 53.53886], [-113.52131, 53.53217], [-113.5216, 53.5303], [-113.52124, 53.5326]], [[-113.52315, 53.53917], [-113.52350315789471, 53.539210526315784], [-113.5214, 53.53886], [-113.52315, 53.53917]], [[-113.52314, 53.54096], [-113.52314, 53.54307], [-113.52315, 53.53917], [-113.52314, 53.54096]], [[-113.52133, 53.54091], [-113.52129, 53.54307], [-113.52133, 53.54099], [-113.52314, 53.54096], [-113.52133, 53.54091]], [[-113.51763, 53.54093], [-113.51947, 53.54095], [-113.52133, 53.54091], [-113.51763, 53.54093]], [[-113.51212, 53.54092], [-113.51393, 53.54093], [-113.51763, 53.54093], [-113.51212, 53.54092]], [[-113.51215, 53.53884], [-113.51214, 53.53722], [-113.51212, 53.54092], [-113.51215, 53.53884]], [[-113.51390028239051, 53.546249452101044], [-113.51390059817946, 53.54624945383615], [-113.51392, 53.54461], [-113.51392, 53.54304], [-113.51393, 53.54093], [-113.51390028239051, 53.546249452101044]], [[-113.51944, 53.54304], [-113.51762, 53.54303], [-113.51392, 53.54304], [-113.51944, 53.54304]], [[-113.50107, 53.56269], [-113.49169186080961, 53.562699955561776], [-113.49169186046512, 53.5627], [-113.49553, 53.5627], [-113.50107, 53.56269]], [[-113.49369, 53.55888], [-113.48959, 53.55922], [-113.49172, 53.55907], [-113.503, 53.55896], [-113.49369, 53.55888]], [[-113.50389, 53.55897], [-113.50565365072232, 53.5589649232852], [-113.503, 53.55896], [-113.50389, 53.55897]], [[-113.49375, 53.55304], [-113.49375, 53.55144], [-113.4937, 53.54624], [-113.49118, 53.54629], [-113.48733, 53.54673], [-113.48378553789657, 53.547267643128045], [-113.48462, 53.54901], [-113.48546860310414, 53.550737039911155], [-113.48505, 53.54985], [-113.4884, 53.54928], [-113.48815, 53.54873], [-113.48941, 53.54856], [-113.49154, 53.54831], [-113.49177, 53.54879], [-113.49372, 53.54868], [-113.49374, 53.55093], [-113.49372044397462, 53.55591678647045], [-113.49375, 53.55304]], [[-113.49373, 53.54316], [-113.49368, 53.5398], [-113.49371, 53.54439], [-113.4937, 53.54624], [-113.49373, 53.54316]], [[-113.50106768635943, 53.54305077868748], [-113.50106770238023, 53.54304971731016], [-113.49742, 53.54303], [-113.49373, 53.54316], [-113.50106768635943, 53.54305077868748]], [[-113.49743, 53.53884], [-113.49738, 53.53721], [-113.49742, 53.54303], [-113.49743, 53.53884]], [[-113.50107, 53.53884], [-113.49924, 53.53883], [-113.49743, 53.53884], [-113.50107, 53.53884]], [[-113.50109696909271, 53.541110797606976], [-113.5011, 53.54091], [-113.50109003798156, 53.535650054259364], [-113.50108987505683, 53.53565005337869], [-113.50107, 53.53884], [-113.50109696909271, 53.541110797606976]], [[-113.49539, 53.53873], [-113.49379509080946, 53.53953234695474], [-113.49368, 53.5398], [-113.49539, 53.53873]], [[-113.49089, 53.54447], [-113.49029, 53.54114], [-113.49118, 53.54629], [-113.49089, 53.54447]], [[-113.48374879831516, 53.53889736832791], [-113.48091368888456, 53.53956688396604], [-113.48181, 53.53952], [-113.48373, 53.53891], [-113.48374879831516, 53.53889736832791]], [[-113.50475, 53.55143], [-113.49926, 53.55142], [-113.50293, 53.55143], [-113.50475, 53.55143]], [[-113.50479, 53.55301], [-113.50475, 53.54981], [-113.50475, 53.55143], [-113.50479, 53.55301]], [[-113.52952649631887, 53.54620194456475], [-113.52866, 53.54617], [-113.52682, 53.54618], [-113.52952649631887, 53.54620194456475]], [[-113.5249809787234, 53.539456829787234], [-113.52498020786263, 53.53945670131044], [-113.52499, 53.54307], [-113.525, 53.54095], [-113.5249809787234, 53.539456829787234]], [[-113.54116, 53.55103], [-113.53417, 53.55098], [-113.53764, 53.55104], [-113.54244875559563, 53.551032990152194], [-113.54116, 53.55103]], [[-113.53415, 53.54781], [-113.53416, 53.54621], [-113.53414, 53.54461], [-113.53412, 53.54665], [-113.53417, 53.55098], [-113.53415, 53.54781]], [[-113.53944, 53.5478], [-113.54116, 53.54779], [-113.53415, 53.54781], [-113.53944, 53.5478]], [[-113.53243, 53.54644], [-113.5314379999993, 53.54632219999991], [-113.53412, 53.54665], [-113.53243, 53.54644]], [[-113.51395, 53.53725], [-113.51765, 53.53729], [-113.51883, 53.53726], [-113.51395, 53.53725]], [[-113.51394, 53.53573], [-113.51394, 53.538843266423356], [-113.51394004208439, 53.53884326650015], [-113.51395, 53.53725], [-113.51394, 53.53573]], [[-113.50282434003583, 53.561550907824], [-113.50291488954831, 53.566159878008506], [-113.50292, 53.56177], [-113.50282434003583, 53.561550907824]], [[-113.4937328168661, 53.53442762454545], [-113.49727092872192, 53.53405927317416], [-113.49556, 53.53407], [-113.49373279048889, 53.534425565094054], [-113.4937328168661, 53.53442762454545]], [[-113.50838, 53.55301], [-113.50838, 53.55144], [-113.50854, 53.54622], [-113.50836, 53.54983], [-113.50838, 53.55301]], [[-113.50838, 53.55677], [-113.50838994112183, 53.55895704680161], [-113.50838997826627, 53.55895704669469], [-113.50838, 53.55301], [-113.50838, 53.55677]], [[-113.51214, 53.55145], [-113.51397, 53.55145], [-113.50838, 53.55144], [-113.51214, 53.55145]], [[-113.50859, 53.54093], [-113.50854, 53.543], [-113.50854, 53.54622], [-113.50859, 53.54093]], [[-113.51025, 53.53569], [-113.51029, 53.53884], [-113.51032, 53.53723], [-113.51025, 53.53569]], [[-113.51197, 53.53411], [-113.50824, 53.5343], [-113.51198414898866, 53.534232624568325], [-113.51197, 53.53411]], [[-113.49530655030793, 53.53726377823409], [-113.49391, 53.5373], [-113.4941, 53.53664], [-113.49374, 53.5374], [-113.49530655030793, 53.53726377823409]], [[-113.47969, 53.52179], [-113.4797, 53.52094], [-113.47971, 53.51998], [-113.47942, 53.52446], [-113.47969, 53.52179]], [[-113.48613, 53.51999], [-113.48613, 53.51904], [-113.48612491071428, 53.520444642856944], [-113.48613, 53.51999]], [[-113.49128, 53.51906], [-113.49458053571429, 53.51906], [-113.4945805318505, 53.51905997761667], [-113.48613, 53.51904], [-113.49128, 53.51906]], [[-113.50045, 53.52254], [-113.50045, 53.52002], [-113.50044, 53.52183], [-113.50045, 53.52254]], [[-113.48282, 53.51515], [-113.48282, 53.5142], [-113.48281, 53.51705], [-113.48282, 53.51515]], [[-113.49126, 53.52268], [-113.49124, 53.52448], [-113.49126, 53.52484], [-113.49127066666667, 53.52175733333333], [-113.49126, 53.52268]], [[-113.48609205047319, 53.52577971608787], [-113.4861, 53.52542], [-113.4861, 53.52353], [-113.48609205047319, 53.52577971608787]], [[-113.46729134121449, 53.56335082752169], [-113.4673, 53.56426], [-113.46729134121449, 53.56335082752168], [-113.46729134121449, 53.56335082752169]], [[-113.4421170982839, 53.54936079563183], [-113.44928, 53.54935], [-113.4461, 53.54933], [-113.4421170982839, 53.54936079563183]], [[-113.44616, 53.54795], [-113.44616, 53.54384], [-113.4461, 53.54933], [-113.44616, 53.54795]], [[-113.4525, 53.54794], [-113.45094, 53.54794], [-113.44616, 53.54795], [-113.4525, 53.54794]], [[-113.44711065665281, 53.54336005683548], [-113.44692, 53.54338], [-113.44616, 53.54384], [-113.44711065665281, 53.54336005683548]], [[-113.45338, 53.52785], [-113.4533132981208, 53.527918569531806], [-113.45746880801914, 53.52774005120681], [-113.45746880782347, 53.52774003206343], [-113.45338, 53.52785]], [[-113.45331, 53.52684], [-113.45324401731324, 53.52683984289836], [-113.45338, 53.52785], [-113.45331, 53.52684]], [[-113.4575, 53.52559], [-113.45749654566474, 53.52583756069364], [-113.45786, 53.52535], [-113.4575, 53.52559]], [[-113.45738992576298, 53.52508139400605], [-113.45748, 53.52508], [-113.4582, 53.52475], [-113.45738992576298, 53.52508139400605]], [[-113.46065, 53.52437], [-113.46076209380234, 53.523470580681185], [-113.45916, 53.52349], [-113.46065, 53.52348], [-113.46065, 53.52437]], [[-113.46136949736199, 53.518034976116375], [-113.4613694877511, 53.518034976132206], [-113.46103704225348, 53.52126444668044], [-113.46107, 53.521], [-113.46136949736199, 53.518034976116375]], [[-113.46693823013833, 53.531740005630525], [-113.45751, 53.53177], [-113.4654, 53.53175], [-113.4669382301902, 53.53174001149227], [-113.46693823013833, 53.531740005630525]], [[-113.48645, 53.55907], [-113.48701, 53.56006], [-113.48457811192313, 53.55565282324027], [-113.4845779929918, 53.55565284435011], [-113.48645, 53.55907]], [[-113.48038, 53.55642], [-113.48196575327503, 53.55611650655023], [-113.48127, 53.55624], [-113.48038, 53.55642]], [[-113.47991, 53.55365], [-113.48311, 53.55304], [-113.47873, 53.55387], [-113.47991, 53.55365]], [[-113.48884, 53.57663], [-113.48884, 53.57531], [-113.48883, 53.57315], [-113.48884, 53.57663]], [[-113.48422, 53.57663], [-113.48576, 53.57664], [-113.48884, 53.57663], [-113.48422, 53.57663]], [[-113.48423, 53.57314], [-113.48422, 53.57473], [-113.48422, 53.57663], [-113.48423, 53.57314]], [[-113.47961641791068, 53.54681373134368], [-113.47781011209311, 53.543506533735695], [-113.47793, 53.54381], [-113.47926, 53.54619], [-113.47961641791068, 53.54681373134368]], [[-113.4754, 53.54653], [-113.47672, 53.54715], [-113.47539343331981, 53.54645907985407], [-113.4754, 53.54653]], [[-113.47543, 53.54843], [-113.47530445652176, 53.548605543478246], [-113.47735, 53.54656], [-113.47672, 53.54715], [-113.47543, 53.54843]], [[-113.47212, 53.54371], [-113.46692, 53.54372], [-113.47024, 53.54372], [-113.47212, 53.54371]], [[-113.46455, 53.54412], [-113.46452495762712, 53.544220169491524], [-113.46692, 53.54372], [-113.46455, 53.54412]], [[-113.46446, 53.54448], [-113.46573, 53.54575], [-113.4644997466468, 53.54432101341283], [-113.46446, 53.54448]], [[-113.48194841258982, 53.53373241190558], [-113.48285840336133, 53.534592946656915], [-113.48253, 53.53407], [-113.48194841258982, 53.53373241190558]], [[-113.48053748129675, 53.53305797173732], [-113.4809596882494, 53.53315849720224], [-113.48079, 53.53306], [-113.48053748129675, 53.53305797173732]], [[-113.47537, 53.53296], [-113.47557336134454, 53.53296084033614], [-113.4743905128205, 53.53266512820513], [-113.47537, 53.53296]], [[-113.4728295751634, 53.5321952124183], [-113.47297076599939, 53.532237717512906], [-113.47297197094431, 53.532124014527845], [-113.4728295751634, 53.5321952124183]], [[-113.473024783195, 53.527140458507894], [-113.46689, 53.52717], [-113.46386, 53.52719], [-113.47302478260552, 53.5271405141328], [-113.473024783195, 53.527140458507894]], [[-113.46689, 53.52348], [-113.46688, 53.52533], [-113.46689, 53.52717], [-113.46689, 53.52348]], [[-113.47156076056334, 53.53181323943661], [-113.4715409768938, 53.53180548113483], [-113.47155, 53.53181], [-113.47156076056334, 53.53181323943661]], [[-113.47154075808626, 53.53265101415094], [-113.47157, 53.53262], [-113.47155, 53.53181], [-113.47154075808626, 53.53265101415094]], [[-113.47143085820895, 53.53276757462687], [-113.46845598712459, 53.53406431330467], [-113.47124, 53.53297], [-113.47143085820895, 53.53276757462687]], [[-113.46306572365614, 53.5361830668066], [-113.46260465196416, 53.53626491385251], [-113.46287, 53.53626], [-113.46306572365614, 53.5361830668066]], [[-113.46102288471054, 53.53629420583869], [-113.45907239247313, 53.536081182795705], [-113.46017, 53.53631], [-113.46102288471054, 53.53629420583869]], [[-113.47736, 53.54281], [-113.47497, 53.54304], [-113.47749509028961, 53.543001741056216], [-113.47736, 53.54281]], [[-113.47856, 53.53969], [-113.47941749185667, 53.53964514657981], [-113.47689264311818, 53.53949662606578], [-113.47856, 53.53969]], [[-113.47709, 53.55134], [-113.47726999999867, 53.55161666666461], [-113.47654, 53.55049], [-113.47546, 53.54885], [-113.47522882582322, 53.54871129549393], [-113.47522342327538, 53.54871884970585], [-113.47709, 53.55134]], [[-113.47457, 53.55185], [-113.47460668593449, 53.55184257546564], [-113.47312, 53.55166], [-113.47457, 53.55185]], [[-113.47224777672209, 53.55388505938243], [-113.47237, 53.55373], [-113.47312, 53.55166], [-113.47224777672209, 53.55388505938243]], [[-113.47426, 53.55426], [-113.47339, 53.55388], [-113.47237, 53.55373], [-113.47426, 53.55426]], [[-113.46697, 53.55321], [-113.46743, 53.55247], [-113.46741471568272, 53.55221322346977], [-113.46697, 53.55321]], [[-113.48073, 53.54874], [-113.48004461538453, 53.547563076922934], [-113.48022, 53.54787], [-113.48073, 53.54874]], [[-113.47574, 53.55409], [-113.47279383572901, 53.55658591989735], [-113.47284, 53.5566], [-113.47574, 53.55409]], [[-113.4717, 53.55458], [-113.47183594611661, 53.554407531046095], [-113.47058, 53.55543], [-113.4717, 53.55458]], [[-113.47079795977012, 53.558386293103396], [-113.47065518650292, 53.55942649833582], [-113.47078, 53.55941], [-113.47079795977012, 53.558386293103396]], [[-113.46407, 53.56634], [-113.46401, 53.56734], [-113.46435276758655, 53.56607761205934], [-113.46407, 53.56634]], [[-113.47029, 53.57038], [-113.46297499526244, 53.570399317794205], [-113.46727, 53.57042], [-113.47083, 53.57038], [-113.47029, 53.57038]], [[-113.46725, 53.57353], [-113.46732, 53.57672], [-113.4673, 53.57512], [-113.46727, 53.57042], [-113.46725, 53.57353]], [[-113.47478, 53.56734], [-113.47034, 53.56734], [-113.47668, 53.56735], [-113.47478, 53.56734]], [[-113.4744, 53.57512], [-113.4744, 53.57353], [-113.47439, 53.57672], [-113.4744, 53.57512]], [[-113.44904047493404, 53.5181], [-113.44904033472802, 53.5181], [-113.44908, 53.52521], [-113.44907, 53.52183], [-113.44904047493404, 53.5181]], [[-113.45275236286933, 53.52849521097031], [-113.45176273845532, 53.52951254486793], [-113.45206, 53.52925], [-113.45275236286933, 53.52849521097031]], [[-113.45073273528654, 53.53042225569583], [-113.44704985682816, 53.530478667400885], [-113.45069, 53.53046], [-113.45073273528654, 53.53042225569583]], [[-113.44911, 53.52683], [-113.44725, 53.52684], [-113.44920263044679, 53.52683022054868], [-113.44911, 53.52683]], [[-113.44931, 53.54313], [-113.44784141291937, 53.54328361789546], [-113.45095, 53.54311], [-113.44931, 53.54313]]], [[[-113.5341, 53.56525], [-113.53409, 53.56208], [-113.53942, 53.56208], [-113.53942, 53.56524], [-113.5341, 53.56525]]], [[[-113.50634, 53.51228], [-113.50628, 53.50848], [-113.51204, 53.50848], [-113.51204, 53.51226], [-113.51203, 53.51426], [-113.51204, 53.51616], [-113.50632, 53.51615], [-113.50633, 53.51426], [-113.50634, 53.51228]]], [[[-113.50446, 53.51227], [-113.50415, 53.51275], [-113.50633, 53.51312], [-113.50632, 53.51615], [-113.50048, 53.51614], [-113.50048, 53.51234], [-113.50446, 53.51227]]], [[[-113.49207, 53.58477], [-113.4921, 53.58906], [-113.48676, 53.5891], [-113.48676, 53.58819], [-113.4873, 53.58818], [-113.48732, 53.58698], [-113.48683, 53.5869], [-113.48682, 53.58598], [-113.48602, 53.58599], [-113.48601, 53.58479], [-113.49207, 53.58477]]], [[[-113.46247, 53.51067], [-113.46316, 53.51229], [-113.45208, 53.51228], [-113.45206, 53.50948], [-113.46037, 53.50936], [-113.46247, 53.51067]]], [[[-113.45486, 53.5049], [-113.45509, 53.50938], [-113.44903, 53.50948], [-113.44898, 53.50805], [-113.44661, 53.50631], [-113.45285, 53.5033], [-113.45486, 53.5049]]], [[[-113.43224, 53.53799], [-113.43177, 53.53847], [-113.43263, 53.54119], [-113.42934996174246, 53.54119922006537], [-113.42934, 53.5436], [-113.42763, 53.54523], [-113.42617, 53.5447], [-113.41842, 53.54471], [-113.4184, 53.54123], [-113.41847, 53.53588], [-113.41995, 53.53787], [-113.4219, 53.53839], [-113.42659, 53.53844], [-113.4315, 53.5376], [-113.43327, 53.53777], [-113.43224, 53.53799]]], [[[-113.45094, 53.54121], [-113.44331, 53.54121], [-113.44287, 53.53759], [-113.45339, 53.53754], [-113.45344, 53.53868], [-113.45179, 53.53872], [-113.45181, 53.53995], [-113.45095, 53.54012], [-113.45094, 53.54121]]], [[[-113.43112, 53.55398], [-113.42991, 53.55343], [-113.43041, 53.55301], [-113.42923, 53.55248], [-113.42974, 53.55155], [-113.42957, 53.54933], [-113.42713, 53.54953], [-113.42651, 53.54765], [-113.42547, 53.54679], [-113.42763, 53.54523], [-113.43026, 53.54641], [-113.43109, 53.54712], [-113.43124, 53.55034], [-113.43278, 53.55034], [-113.43278, 53.55207], [-113.4322, 53.55316], [-113.43112, 53.55398]]], [[[-113.45366, 53.55969], [-113.45446, 53.5614], [-113.44213, 53.56381], [-113.44086, 53.56193], [-113.44212, 53.56143], [-113.44146, 53.56047], [-113.44432, 53.55978], [-113.4494, 53.55788], [-113.45159, 53.56001], [-113.45366, 53.55969]]], [[[-113.43368, 53.59223], [-113.43082, 53.59225], [-113.43668, 53.59224], [-113.43667, 53.59545], [-113.43058, 53.59545], [-113.43057235893417, 53.59522229623819], [-113.43055, 53.59836], [-113.42929, 53.59855], [-113.42902, 53.59638], [-113.42802, 53.59583], [-113.42896, 53.5951], [-113.42572, 53.59342], [-113.42048, 53.59661], [-113.42157, 53.59742], [-113.42322, 53.59789], [-113.42189, 53.59908], [-113.42025866175895, 53.598601149471534], [-113.41637106973394, 53.601940365795286], [-113.41743, 53.60283], [-113.41261, 53.60697], [-113.4034, 53.60691], [-113.41130560807315, 53.60197993444885], [-113.40997, 53.60196], [-113.39986, 53.60226], [-113.40419, 53.60004], [-113.39923, 53.60254], [-113.39626, 53.60286], [-113.39648, 53.60046], [-113.3962, 53.59928], [-113.40635, 53.59769], [-113.41043, 53.59718], [-113.41353150752366, 53.59718799357609], [-113.4133, 53.59715], [-113.41419, 53.59452], [-113.41736, 53.59072], [-113.41819, 53.58881], [-113.4182, 53.58357], [-113.44083, 53.58354], [-113.443, 53.58353], [-113.44296, 53.58762], [-113.44295, 53.59054], [-113.4429, 53.59225], [-113.43368, 53.59223]], [[-113.40539, 53.60032], [-113.4087565189273, 53.60027284987497], [-113.40861, 53.60023], [-113.40705, 53.60027], [-113.40419, 53.60004], [-113.40539, 53.60032]], [[-113.41787, 53.5979], [-113.43442, 53.58758], [-113.44083, 53.58354], [-113.41787, 53.5979]], [[-113.41603595649107, 53.59759900817687], [-113.42023273063269, 53.59859353784741], [-113.41787, 53.5979], [-113.41603595649107, 53.59759900817687]], [[-113.43053, 53.59396], [-113.42925, 53.5934], [-113.43053553441004, 53.594124925419194], [-113.43053, 53.59396]], [[-113.41019, 53.6012], [-113.40999744769874, 53.600955606694555], [-113.41011424124514, 53.60146171206225], [-113.41019, 53.6012]], [[-113.40967, 53.60054], [-113.40928411589896, 53.60042714710253], [-113.40976465081724, 53.600660133729576], [-113.40967, 53.60054]]]]}, "properties": {"origin_name": "DOWNTOWN", "jobs_reachable_30min": 0}}, {"type": "Feature", "geometry": {"type": "MultiPolygon", "coordinates": [[[[-113.54087, 53.39581], [-113.56539, 53.39581], [-113.56553, 53.39704], [-113.56525, 53.398], [-113.56413, 53.39917], [-113.55417, 53.4052], [-113.55334, 53.40622], [-113.55316, 53.41041], [-113.5437, 53.41034], [-113.54365, 53.41155], [-113.54088, 53.41141], [-113.54092, 53.41926], [-113.54095, 53.42491], [-113.53470030865994, 53.42490491481583], [-113.53483, 53.42697], [-113.53655, 53.42854], [-113.53654, 53.42942], [-113.53597, 53.42998], [-113.53654, 53.43054], [-113.53641, 53.43127], [-113.53555, 53.43174], [-113.53421, 53.43189], [-113.53418, 53.43101], [-113.53181, 53.43055], [-113.53272, 53.43001], [-113.53074, 53.42902], [-113.52868, 53.42874], [-113.51963026427748, 53.42926666494779], [-113.52591, 53.42901], [-113.52593, 53.43015], [-113.52767, 53.43026], [-113.52816, 53.42997], [-113.52908, 53.43051], [-113.52694, 53.43184], [-113.52054, 53.43155], [-113.51888, 53.43002], [-113.51857782146114, 53.42932791366907], [-113.51648, 53.42945], [-113.50411, 53.42929], [-113.50411, 53.42979], [-113.50282, 53.42878], [-113.49879, 53.42807], [-113.49805, 53.427], [-113.49744, 53.427], [-113.49752, 53.42493], [-113.50892032386135, 53.42491793616522], [-113.50896, 53.42344], [-113.50834, 53.42186], [-113.50856, 53.42104], [-113.50939, 53.42056], [-113.51141, 53.42027], [-113.5163, 53.42106], [-113.51607, 53.41799], [-113.51637, 53.41639], [-113.51638, 53.40942], [-113.51629, 53.40845], [-113.51555, 53.40782], [-113.51816665141811, 53.40643665141812], [-113.51746, 53.40573], [-113.51643, 53.40531], [-113.51636, 53.4048], [-113.51496, 53.40476], [-113.51455, 53.40421], [-113.51533, 53.40205], [-113.51596, 53.4014], [-113.51637, 53.39937], [-113.51699, 53.39889], [-113.5163, 53.39731], [-113.51626, 53.39589], [-113.52818, 53.39586], [-113.54087, 53.39581]], [[-113.5397, 53.41086], [-113.5376, 53.41142], [-113.53982, 53.41092], [-113.54088, 53.41141], [-113.5397, 53.41086]], [[-113.52127441551939, 53.42108920400501], [-113.5212, 53.42107], [-113.5163, 53.42106], [-113.52127441551939, 53.42108920400501]], [[-113.53449057899469, 53.42490474416517], [-113.52866, 53.4249], [-113.52866071256426, 53.425036812336735], [-113.53449057899469, 53.42490474416517]], [[-113.52306, 53.42155], [-113.5218542978724, 53.42123885106385], [-113.52535, 53.42241], [-113.52562225925055, 53.42242536259094], [-113.52306, 53.42155]], [[-113.51817, 53.417], [-113.51791088660757, 53.41730769715351], [-113.52107489756516, 53.41512582342626], [-113.51817, 53.417]], [[-113.51673, 53.41871], [-113.51667644636333, 53.419002676851555], [-113.51701929604629, 53.41836646094503], [-113.51673, 53.41871]], [[-113.52391164677806, 53.40362644391408], [-113.5235, 53.40372], [-113.52326963284642, 53.403845574417694], [-113.52391164677806, 53.40362644391408]], [[-113.52657472945305, 53.40322119040655], [-113.52548, 53.40327], [-113.52482684931508, 53.403418443337486], [-113.52657472945305, 53.40322119040655]], [[-113.53237474535936, 53.422625506901475], [-113.52854, 53.42259], [-113.53196, 53.4227], [-113.53237474535936, 53.422625506901475]], [[-113.53632, 53.419482857142846], [-113.53636, 53.41918], [-113.53632, 53.41892857142857], [-113.53632, 53.419482857142846]], [[-113.53501, 53.41552], [-113.53626075749011, 53.418556189937824], [-113.53615, 53.41786], [-113.53501, 53.41552]], [[-113.52647, 53.41356], [-113.52688746116287, 53.413335996449185], [-113.52675, 53.41337], [-113.52647, 53.41356]], [[-113.5304900709054, 53.40905135886554], [-113.53118, 53.40862], [-113.5371546259034, 53.40475174962103], [-113.53715442850311, 53.404751660646056], [-113.5304900709054, 53.40905135886554]], [[-113.53447642377685, 53.403544593526256], [-113.5342, 53.40342], [-113.5337572468726, 53.4033969895328], [-113.53447642377685, 53.403544593526256]], [[-113.54087638174765, 53.40576552633309], [-113.5390445991561, 53.40557765119549], [-113.53911, 53.40561], [-113.54087638214376, 53.4057661442779], [-113.54087638174765, 53.40576552633309]], [[-113.53615, 53.42077], [-113.53618504978664, 53.420504623044096], [-113.53589550234743, 53.42105093896713], [-113.53615, 53.42077]], [[-113.53538, 53.42162], [-113.53562270619706, 53.42135207757468], [-113.53402, 53.42233], [-113.53538, 53.42162]], [[-113.52700661206553, 53.41826349180983], [-113.52384, 53.42025], [-113.52705, 53.41827], [-113.52700661206553, 53.41826349180983]], [[-113.52177843342038, 53.41921292428196], [-113.5222893292851, 53.41825925200113], [-113.52196, 53.41863], [-113.52177843342038, 53.41921292428196]]], [[[-113.56369, 53.42578], [-113.56518, 53.42681], [-113.5637, 53.4287], [-113.55593, 53.42987], [-113.54265, 53.43359], [-113.5415, 53.43381], [-113.54098, 53.43223], [-113.54095, 53.42491], [-113.56678, 53.42497], [-113.56532, 53.42579], [-113.56369, 53.42578]]], [[[-113.51088, 53.44224], [-113.51009, 53.44267], [-113.50989, 53.44247], [-113.51045, 53.44096], [-113.50886, 53.44074], [-113.50848, 53.44039], [-113.50958, 53.43946], [-113.50992, 53.43827], [-113.50837, 53.43694], [-113.50837, 53.4367], [-113.50899, 53.43653], [-113.50774, 53.43535], [-113.51944, 53.43488], [-113.51814, 53.4394], [-113.51652, 53.43951], [-113.52467, 53.43936], [-113.52466, 53.4401], [-113.52456, 53.44302], [-113.52116, 53.44306], [-113.51689525581395, 53.44276613953488], [-113.51765, 53.44285], [-113.51668, 53.44534], [-113.51537, 53.44515], [-113.51544, 53.44577], [-113.51477, 53.44619], [-113.51415, 53.4461], [-113.51393, 53.44549], [-113.51228, 53.44466], [-113.51262, 53.44395], [-113.51207, 53.44304], [-113.51094, 53.44346], [-113.51088, 53.44224]], [[-113.52062276679843, 53.44158260869565], [-113.52063, 53.44206], [-113.52116, 53.44306], [-113.52062276679843, 53.44158260869565]], [[-113.5209355483871, 53.44035617921147], [-113.52088, 53.44036], [-113.52079214285715, 53.440483650793645], [-113.5209355483871, 53.44035617921147]], [[-113.52064561093957, 53.44068988089987], [-113.52061, 53.44074], [-113.52061710213776, 53.44120874109264], [-113.52064561093957, 53.44068988089987]], [[-113.51541236220473, 53.442601373578306], [-113.51361, 53.44119], [-113.51513, 53.44257], [-113.51541236220473, 53.442601373578306]]], [[[-113.52497, 53.44966], [-113.52452, 53.45023], [-113.51879, 53.44905], [-113.51962, 53.4481], [-113.52036, 53.4479], [-113.52496, 53.4488], [-113.52497, 53.44966]]], [[[-113.51977, 53.45238], [-113.52546, 53.45263], [-113.52547, 53.45404], [-113.51614, 53.45403], [-113.51608, 53.44881], [-113.51805, 53.44887], [-113.5199, 53.44933], [-113.51925, 53.45176], [-113.51977, 53.45238]]], [[[-113.5104, 53.45987], [-113.50953, 53.45884], [-113.50955, 53.45673], [-113.50886, 53.45485], [-113.50885, 53.45404], [-113.51614, 53.45403], [-113.51619, 53.46125], [-113.51287, 53.46102], [-113.5104, 53.45987]]]]}, "properties": {"origin_name": "RUTHERFORD", "jobs_reachable_30min": 0}}]}